8.001313850813966990e+08
4.994511221183370799e+04
-7.542802623080362423e-01
2.422183553984250448e+00
-4.233342763779492117e+06
5.704659251236299315e+04
-1.220182886571108611e+03
-4.774375290304695227e+03
-1.932481981867966624e+03


OBJECT: KOSMOS 482 DESCENT CRAFT
CATNR:  6073
COSPAR: 1972-023E

1  6073U 72023E   25130.02495443  .08088373  12542-4  65849-4 0  9993
2  6073  51.9455 241.9030 0035390 103.6551  63.6433 16.48653575751319

mass: 480 kg
drag area: 0.7854 m^2
altitude limit: 50000.0 meter

propagation start: 2025-05-10 00:35:56.062752 UTC
propagation end:   2025-05-10 06:42:00.897397 UTC
final altitude:    49.945

reentry after 0.254 days

REENTRY AT:
2025-05-10 06:42:00.897397 UTC  +-  1.52 hr
lat: -43.22
lon: 138.78
